CUTE-1 (CO-55)          
1 27844U 03031E   25182.81305815  .00000251  00000+0  12839-3 0  9994
2 27844  98.6753 190.7993 0010740 119.4379 240.7873 14.24010625141809
CUBESAT XI-IV (CO-57)   
1 27848U 03031J   25182.27978616  .00000205  00000+0  10960-3 0  9995
2 27848  98.6781 190.2622 0010364 136.6371 223.5624 14.23343083141453
MOZHAYETS 4 (RS-22)     
1 27939U 03042A   25183.17486291  .00000742  00000+0  12545-3 0  9998
2 27939  98.3298 353.1741 0010286 301.8620 174.4207 14.72396178164152
IRS-P6 (RESOURCESAT-1)  
1 28051U 03046A   25183.10637317  .00000082  00000+0  41835-4 0  9990
2 28051  98.2396 230.8535 0063234 312.9824  74.2744 14.35986125130318
SAUDISAT 2              
1 28371U 04025F   25183.22413675  .00000213  00000+0  59025-4 0  9991
2 28371  98.5260 169.6798 0023699 293.0074  66.8623 14.56338747114840
COSMOS 2407             
1 28380U 04028A   25182.89416513  .00000056  00000+0  41728-4 0  9996
2 28380  82.9617 334.2361 0039957 150.4535   2.9042 13.76293016 51690
COSMOS 2414             
1 28521U 05002A   25183.09612874  .00000077  00000+0  51992-4 0  9994
2 28521  82.9509 308.4237 0038852 246.8527 112.8541 13.87878419 35589
INMARSAT 4-F1           
1 28628U 05009A   25182.81672265  .00000035  00000+0  00000+0 0  9991
2 28628   4.7120  42.3147 0002047  64.4280 285.4637  1.00272282 74156
HAMSAT (VO-52)          
1 28650U 05017B   25183.01767079  .00004229  00000+0  29836-3 0  9997
2 28650  98.0036 187.0139 0022212 137.1866 223.1094 15.05350874 94067
NOAA 18                 
1 28654U 05018A   25183.20097795  .00000060  00000+0  55109-4 0  9996
2 28654  98.8422 262.4231 0015215  67.6701 292.6082 14.13616023 36949
SJ-7                    
1 28737U 05024A   25182.80270947  .00005941  00000+0  32100-3 0  9990
2 28737  97.7576 199.5271 0018898 159.2161 200.9843 15.14947206 94865
CUBESAT XI-V            
1 28895U 05043F   25182.89662521  .00001183  00000+0  20080-3 0  9996
2 28895  98.2526 327.5293 0013491 232.9426 127.0547 14.71071909 50452
CLOUDSAT                
1 29107U 06016A   25182.90903090  .00000896  00000+0  11141-3 0  9993
2 29107  98.4213 195.3249 0006035  36.3760 323.7862 14.85284131 22495
CALIPSO                 
1 29108U 06016B   25182.94945605  .00000805  00000+0  14874-3 0  9992
2 29108  98.4469 181.8451 0000986  75.5684 284.5630 14.68266217 21642
HINODE (SOLAR-B)        
1 29479U 06041A   25182.91104458  .00000574  00000+0  10866-3 0  9991
2 29479  98.0709 199.0332 0016705 322.8958  37.1091 14.67948753  3478
METOP-A                 
1 29499U 06044A   25182.90348413  .00002170  00000+0  26092-3 0  9998
2 29499  98.3311 274.2890 0180274 104.8379 348.3567 14.74114286973818
SHIJIAN-6 02B (SJ-6 02B)
1 29506U 06046B   25183.13926958  .00000917  00000+0  78740-4 0  9996
2 29506  97.7016 210.4472 0006271 147.3291 212.8322 14.99900050 18249
DMSP 5D-3 F17 (USA 191) 
1 29522U 06050A   25183.13042699  .00000017  00000+0  31288-4 0  9997
2 29522  98.7382 191.8805 0009701 342.2846  17.7988 14.14838516962915
LAPAN-TUBSAT            
1 29709U 07001A   25183.23363304  .00000366  00000+0  49165-4 0  9991
2 29709  98.1101 170.1752 0011023 241.9575 118.0525 14.85361280999201
HAIYANG-1B              
1 31113U 07010A   25183.24958771  .00000064  00000+0  39907-4 0  9990
2 31113  98.3142 174.4067 0014037 153.9587 206.2306 14.30898464951326
BEIDOU-2 M1             
1 31115U 07011A   25182.11041701  .00000019  00000+0  00000+0 0  9991
2 31115  51.0624 230.9463 0001426 321.4341  38.6278  1.77349447 69925
CAPE-1                  
1 31130U 07012P   25182.87468164  .00001246  00000+0  23779-3 0  9993
2 31130  98.3988 144.3484 0086952  84.3299 276.7810 14.63441225967081
CBERS 2B                
1 32062U 07042A   25182.80360902  .00000169  00000+0  65426-4 0  9994
2 32062  98.3488 129.5280 0030242 311.7393  78.6720 14.41198397934216
COSMO-SKYMED 2          
1 32376U 07059A   25183.18648939  .00000309  00000+0  45409-4 0  9996
2 32376  97.8879   6.8613 0001383  87.6690 272.4681 14.82146864950239
CARTOSAT-2A             
1 32783U 08021A   25183.19326482  .00000521  00000+0  77826-4 0  9999
2 32783  97.8139 237.9195 0011599 162.3308 197.8310 14.78714355927165
CUTE-1.7+APD II (CO-65) 
1 32785U 08021C   25182.88535695  .00003613  00000+0  26164-3 0  9997
2 32785  97.7847 154.2174 0010913 131.3819 228.8347 15.04592245932435
COMPASS-1               
1 32787U 08021E   25182.86644688  .00039475  00000+0  78163-3 0  9991
2 32787  97.6432 174.3125 0001732 317.4412  42.6702 15.46974197935694
SEEDS II (CO-66)        
1 32791U 08021J   25182.90437722  .00009828  00000+0  47090-3 0  9994
2 32791  97.7283 163.4506 0005759  92.8907 267.2986 15.19129621933963
YUBILEINY (RS-30)       
1 32953U 08025A   25183.17754925  .00000007  00000+0 -20167-4 0  9993
2 32953  82.5011 213.1251 0019110   0.5951 359.5148 12.43165821776343
FENGYUN 3A              
1 32958U 08026A   25183.08249208  .00000083  00000+0  59960-4 0  9998
2 32958  98.6483 126.2858 0009762  60.5073 299.7076 14.19451233885840
HUANJING 1A (HJ-1A)     
1 33320U 08041A   25183.21446025  .00000861  00000+0  11262-3 0  9996
2 33320  97.6408 178.5166 0018693 203.0642 156.9734 14.82753563906627
HUANJING 1B (HJ-1B)     
1 33321U 08041B   25183.25120251  .00000658  00000+0  87980-4 0  9996
2 33321  97.6292 182.6310 0035537 250.8579 108.8787 14.82290206906647
SHIJIAN-6 03A (SJ-6 03A)
1 33408U 08053A   25183.14030434  .00004172  00000+0  24513-3 0  9993
2 33408  97.8718 199.8261 0013966 128.9309 231.3168 15.12203000910203
SHIJIAN-6 03B (SJ-6 03B)
1 33409U 08053B   25183.21856348  .00000986  00000+0  78465-4 0  9997
2 33409  97.8730 192.3981 0021866 135.8581 224.4393 15.02633778910168
CHUANGXIN 1-02 (CX-1-02)
1 33434U 08056B   25183.19325812  .00000041  00000+0  32844-4 0  9995
2 33434  98.6452 207.3322 0015507  88.3630 271.9329 14.30049173868971
STARS (KUKAI)           
1 33498U 09002G   25183.05490518  .00002410  00000+0  24377-3 0  9991
2 33498  98.1237 112.9008 0007610 240.7726 119.2731 14.91977394886620
KKS-1 (KISEKI)          
1 33499U 09002H   25183.21457200  .00001002  00000+0  13419-3 0  9992
2 33499  98.1189  95.5881 0007945 354.4410   5.6713 14.81679029884771
NOAA 19                 
1 33591U 09005A   25183.14029693  .00000152  00000+0  10499-3 0  9991
2 33591  98.9964 247.9706 0012765 302.2537  57.7397 14.13384068845290
UK-DMC 2                
1 35683U 09041C   25183.12690364  .00000642  00000+0  10223-3 0  9991
2 35683  97.8347 322.9417 0001343  82.1091 278.0271 14.75170496854991
METEOR-M 1              
1 35865U 09049A   25183.14730900  .00000063  00000+0  47448-4 0  9991
2 35865  98.6864 144.1968 0001285 221.4867 138.6213 14.23028214819604
OCEANSAT-2              
1 35931U 09051A   25183.19617041  .00000297  00000+0  22867-3 0  9999
2 35931  98.2235 200.3250 0017043 138.1783 222.0689 13.99598432830373
SWISSCUBE               
1 35932U 09051B   25182.95167106  .00000780  00000+0  16760-3 0  9997
2 35932  98.4282  79.6043 0005954 214.1456 145.9362 14.61379344837989
BEESAT-1                
1 35933U 09051C   25182.66107690  .00000643  00000+0  14184-3 0  9994
2 35933  98.4212  79.6230 0004212 228.7758 131.3079 14.60786617837992
ITUPSAT1                
1 35935U 09051E   25183.17604236  .00000554  00000+0  12680-3 0  9991
2 35935  98.4307  79.6688 0006351 240.1707 119.8861 14.59582004837693
DMSP 5D-3 F18 (USA 210) 
1 35951U 09057A   25183.20820644  .00000215  00000+0  13472-3 0  9996
2 35951  98.8601 160.6235 0011367 160.0103 200.1518 14.14645113810083
PROBA-2                 
1 36037U 09059B   25182.51846152  .00000143  00000+0  44133-4 0  9998
2 36037  98.2380   5.9168 0011911 285.3331  74.6549 14.54567613830545
YAOGAN-7                
1 36110U 09069A   25183.22066311  .00000365  00000+0  58459-4 0  9993
2 36110  98.0531  65.4206 0026263  87.0047 273.4168 14.77444648837982
XIWANG-1 (HOPE-1)       
1 36122U 09072B   25182.88617950 -.00000022  00000+0  57984-4 0  9995
2 36122 100.3496 138.1935 0007076 318.8232  41.2346 13.16425756746913
RADUGA-1M 2             
1 36358U 10002A   25182.85808669 -.00000267  00000+0  00000+0 0  9990
2 36358   2.7062  83.3279 0004638 258.1544  41.8697  0.98970628 46550
COSMOS 2463             
1 36519U 10017A   25183.18531627  .00000076  00000+0  67690-4 0  9999
2 36519  82.9608 146.8864 0036809  23.4965 347.0069 13.71632457760046
CARTOSAT-2B             
1 36795U 10035A   25183.16154700  .00000504  00000+0  75539-4 0  9993
2 36795  97.8076 237.2415 0010499 243.7559 116.2574 14.78730112808209
AISSAT 1                
1 36797U 10035C   25183.13156602  .00001377  00000+0  13108-3 0  9997
2 36797  98.1324  64.8237 0010311 130.4736 229.7384 14.95145671812000
TISAT 1                 
1 36799U 10035E   25182.75716939  .00008863  00000+0  45142-3 0  9991
2 36799  98.0571  98.1979 0004300  47.0970 313.0622 15.17048561814337
YAOGAN-10               
1 36834U 10038A   25183.17775016  .00000490  00000+0  64948-4 0  9996
2 36834  97.9248 204.1031 0001534  97.1157 354.3066 14.84236133805341
SHIJIAN-6 04B (SJ-6 04B)
1 37180U 10051B   25183.13397194  .00001241  00000+0  10933-3 0  9998
2 37180  97.8598 180.3264 0011653  50.1539 310.0707 14.98285698803267
FENGYUN 3B              
1 37214U 10059A   25183.23685282  .00000049  00000+0  48956-4 0  9995
2 37214  99.0114 221.8372 0023205  97.8450 337.9266 14.14735432757989
COSMO-SKYMED 4          
1 37216U 10060A   25183.19916030  .00000339  00000+0  49127-4 0  9995
2 37216  97.8878   6.8765 0001463  88.7933 271.3448 14.82146980792787
O/OREOS (USA 219)       
1 37224U 10062C   25182.22854770  .00001894  00000+0  19477-3 0  9992
2 37224  71.9693 154.0035 0014358   7.0766 353.0603 14.91544834 64272
ELEKTRO-L 1 (GOMS 2)    
1 37344U 11001A   25182.99628015 -.00000168  00000+0  00000+0 0  9996
2 37344   8.8884  58.0036 0004860  31.0433 169.3678  1.00246977 52950
